[{"OBJECT_NAME":"TRANSPORTER-15 OBJECT M","OBJECT_ID":"2025-276M","EPOCH":"2026-03-09T17:11:37.076640","MEAN_MOTION":15.2015215,"ECCENTRICITY":0.00045268,"INCLINATION":97.4249,"RA_OF_ASC_NODE":144.0134,"ARG_OF_PERICENTER":15.0949,"MEAN_ANOMALY":345.0421,"EPHEMERIS_TYPE":0,"CLASSIFICATION_TYPE":"U","NORAD_CAT_ID":66677,"ELEMENT_SET_NO":999,"REV_AT_EPOCH":1532,"BSTAR":0.00078021993,"MEAN_MOTION_DOT":0.0001684,"MEAN_MOTION_DDOT":0},{"OBJECT_NAME":"FENGYUN 1C DEB","OBJECT_ID":"1999-025QY","EPOCH":"2026-03-09T17:49:58.428768","MEAN_MOTION":14.85185603,"ECCENTRICITY":0.01589258,"INCLINATION":99.2245,"RA_OF_ASC_NODE":8.2998,"ARG_OF_PERICENTER":58.4769,"MEAN_ANOMALY":303.1855,"EPHEMERIS_TYPE":0,"CLASSIFICATION_TYPE":"U","NORAD_CAT_ID":30095,"ELEMENT_SET_NO":999,"REV_AT_EPOCH":624,"BSTAR":0.002192592,"MEAN_MOTION_DOT":0.0002358,"MEAN_MOTION_DDOT":0}]
